{"type": "FeatureCollection", "features": [ {"type": "Feature", "properties": {"norad_id": 30160, "name": "FENGYUN 1C DEB", "group": "fengyun-1c-debris", "lat": -78.6688443678033, "lon": -1.901382856198268, "alt_km": 1362.4482263142309, "timestamp": "2025-12-25T16:53:14.937810+00:00", "meta": {"OBJECT_NAME": "FENGYUN 1C DEB", "OBJECT_ID": "1999-025TR", "EPOCH": "2025-12-24T20:10:00.768288", "MEAN_MOTION": 13.42910107, "ECCENTRICITY": 0.03434556, "INCLINATION": 98.8875, "RA_OF_ASC_NODE": 306, "ARG_OF_PERICENTER": 97.2919, "MEAN_ANOMALY": 328.1997, "EPHEMERIS_TYPE": 0, "CLASSIFICATION_TYPE": "U", "NORAD_CAT_ID": 30160, "ELEMENT_SET_NO": 999, "REV_AT_EPOCH": 92576, "BSTAR": 0.0011774976, "MEAN_MOTION_DOT": 9.18e-06, "MEAN_MOTION_DDOT": 0}, "tle": {"line1": "1 30160U 99025TR  25358.84028667  .00000918  00000+0  11775-2 0  9999", "line2": "2 30160  98.8875 306.0000 0343455  97.2919 328.1997 13.42910107925763"}}, "geometry": {"type": "Point", "coordinates": [-1.901382856198268, -78.6688443678033]}}, {"type": "Feature", "properties": {"norad_id": 30161, "name": "FENGYUN 1C DEB", "group": "fengyun-1c-debris", "lat": 30.02297301418796, "lon": 173.97293123895628, "alt_km": 1009.9333256266282, "timestamp": "2025-12-25T16:53:14.937820+00:00", "meta": {"OBJECT_NAME": "FENGYUN 1C DEB", "OBJECT_ID": "1999-025TS", "EPOCH": "2025-12-24T10:40:01.812288", "MEAN_MOTION": 13.49750643, "ECCENTRICITY": 0.03276815, "INCLINATION": 100.5066, "RA_OF_ASC_NODE": 346.4883, "ARG_OF_PERICENTER": 229.5927, "MEAN_ANOMALY": 287.9173, "EPHEMERIS_TYPE": 0, "CLASSIFICATION_TYPE": "U", "NORAD_CAT_ID": 30161, "ELEMENT_SET_NO": 999, "REV_AT_EPOCH": 92717, "BSTAR": 0.001355303, "MEAN_MOTION_DOT": 1.147e-05, "MEAN_MOTION_DDOT": 0}, "tle": {"line1": "1 30161U 99025TS  25358.44446542  .00001147  00000+0  13553-2 0  9993", "line2": "2 30161 100.5066 346.4883 0327681 229.5927 287.9173 13.49750643927175"}}, "geometry": {"type": "Point", "coordinates": [173.97293123895628, 30.02297301418796]}}, {"type": "Feature", "properties": {"norad_id": 30162, "name": "FENGYUN 1C DEB", "group": "fengyun-1c-debris", "lat": 54.05902905155507, "lon": -111.41050304107097, "alt_km": 1282.6632946198615, "timestamp": "2025-12-25T16:53:14.937830+00:00", "meta": {"OBJECT_NAME": "FENGYUN 1C DEB", "OBJECT_ID": "1999-025TT", "EPOCH": "2025-12-24T16:03:46.699200", "MEAN_MOTION": 13.53451086, "ECCENTRICITY": 0.03141652, "INCLINATION": 99.4875, "RA_OF_ASC_NODE": 54.2612, "ARG_OF_PERICENTER": 319.3446, "MEAN_ANOMALY": 167.4432, "EPHEMERIS_TYPE": 0, "CLASSIFICATION_TYPE": "U", "NORAD_CAT_ID": 30162, "ELEMENT_SET_NO": 999, "REV_AT_EPOCH": 92822, "BSTAR": 0.0026341893, "MEAN_MOTION_DOT": 2.376e-05, "MEAN_MOTION_DDOT": 0}, "tle": {"line1": "1 30162U 99025TT  25358.66929050  .00002376  00000+0  26342-2 0  9993", "line2": "2 30162  99.4875  54.2612 0314165 319.3446 167.4432 13.53451086928222"}}, "geometry": {"type": "Point", "coordinates": [-111.41050304107097, 54.05902905155507]}}, {"type": "Feature", "properties": {"norad_id": 30163, "name": "FENGYUN 1C DEB", "group": "fengyun-1c-debris", "lat": 8.115079323212829, "lon": -65.77260677719893, "alt_km": 866.3300511999641, "timestamp": "2025-12-25T16:53:14.937840+00:00", "meta": {"OBJECT_NAME": "FENGYUN 1C DEB", "OBJECT_ID": "1999-025TU", "EPOCH": "2025-12-25T05:36:16.161696", "MEAN_MOTION": 13.38819575, "ECCENTRICITY": 0.03740886, "INCLINATION": 98.7012, "RA_OF_ASC_NODE": 112.5722, "ARG_OF_PERICENTER": 201.1824, "MEAN_ANOMALY": 227.7778, "EPHEMERIS_TYPE": 0, "CLASSIFICATION_TYPE": "U", "NORAD_CAT_ID": 30163, "ELEMENT_SET_NO": 999, "REV_AT_EPOCH": 92112, "BSTAR": 0.0020131444, "MEAN_MOTION_DOT": 1.58e-05, "MEAN_MOTION_DDOT": 0}, "tle": {"line1": "1 30163U 99025TU  25359.23352039  .00001580  00000+0  20131-2 0  9991", "line2": "2 30163  98.7012 112.5722 0374088 201.1824 227.7778 13.38819575921125"}}, "geometry": {"type": "Point", "coordinates": [-65.77260677719893, 8.115079323212829]}}, {"type": "Feature", "properties": {"norad_id": 30167, "name": "FENGYUN 1C DEB", "group": "fengyun-1c-debris", "lat": -19.548631322268896, "lon": -97.53930889221522, "alt_km": 722.9032520749715, "timestamp": "2025-12-25T16:53:14.937851+00:00", "meta": {"OBJECT_NAME": "FENGYUN 1C DEB", "OBJECT_ID": "1999-025TY", "EPOCH": "2025-12-25T04:38:57.714720", "MEAN_MOTION": 14.48586943, "ECCENTRICITY": 0.01443178, "INCLINATION": 98.967, "RA_OF_ASC_NODE": 85.1334, "ARG_OF_PERICENTER": 117.3657, "MEAN_ANOMALY": 303.006, "EPHEMERIS_TYPE": 0, "CLASSIFICATION_TYPE": "U", "NORAD_CAT_ID": 30167, "ELEMENT_SET_NO": 999, "REV_AT_EPOCH": 99539, "BSTAR": 0.00042004309, "MEAN_MOTION_DOT": 1.746e-05, "MEAN_MOTION_DDOT": 0}, "tle": {"line1": "1 30167U 99025TY  25359.19372355  .00001746  00000+0  42004-3 0  9991", "line2": "2 30167  98.9670  85.1334 0144317 117.3657 303.0060 14.48586943995391"}}, "geometry": {"type": "Point", "coordinates": [-97.53930889221522, -19.548631322268896]}}, {"type": "Feature", "properties": {"norad_id": 30168, "name": "FENGYUN 1C DEB", "group": "fengyun-1c-debris", "lat": 67.3042635362797, "lon": -91.3815478729521, "alt_km": 637.9831123609201, "timestamp": "2025-12-25T16:53:14.937861+00:00", "meta": {"OBJECT_NAME": "FENGYUN 1C DEB", "OBJECT_ID": "1999-025TZ", "EPOCH": "2025-12-25T04:48:43.555104", "MEAN_MOTION": 14.53058068, "ECCENTRICITY": 0.01003269, "INCLINATION": 97.3885, "RA_OF_ASC_NODE": 70.0997, "ARG_OF_PERICENTER": 115.2442, "MEAN_ANOMALY": 245.9196, "EPHEMERIS_TYPE": 0, "CLASSIFICATION_TYPE": "U", "NORAD_CAT_ID": 30168, "ELEMENT_SET_NO": 999, "REV_AT_EPOCH": 98492, "BSTAR": 0.0018147909, "MEAN_MOTION_DOT": 7.979e-05, "MEAN_MOTION_DDOT": 0}, "tle": {"line1": "1 30168U 99025TZ  25359.20050411  .00007979  00000+0  18148-2 0  9995", "line2": "2 30168  97.3885  70.0997 0100326 115.2442 245.9196 14.53058068984921"}}, "geometry": {"type": "Point", "coordinates": [-91.3815478729521, 67.3042635362797]}}, {"type": "Feature", "properties": {"norad_id": 30169, "name": "FENGYUN 1C DEB", "group": "fengyun-1c-debris", "lat": 0.8975043750031062, "lon": -110.65459695784311, "alt_km": 551.7570055124143, "timestamp": "2025-12-25T16:53:14.937871+00:00", "meta": {"OBJECT_NAME": "FENGYUN 1C DEB", "OBJECT_ID": "1999-025UA", "EPOCH": "2025-12-24T22:45:49.916160", "MEAN_MOTION": 14.5846002, "ECCENTRICITY": 0.02128, "INCLINATION": 98.3344, "RA_OF_ASC_NODE": 68.4561, "ARG_OF_PERICENTER": 189.3106, "MEAN_ANOMALY": 347.4154, "EPHEMERIS_TYPE": 0, "CLASSIFICATION_TYPE": "U", "NORAD_CAT_ID": 30169, "ELEMENT_SET_NO": 999, "REV_AT_EPOCH": 97901, "BSTAR": 0.0027761, "MEAN_MOTION_DOT": 0.00017627, "MEAN_MOTION_DDOT": 0}, "tle": {"line1": "1 30169U 99025UA  25358.94849440  .00017627  00000+0  27761-2 0  9996", "line2": "2 30169  98.3344  68.4561 0212800 189.3106 347.4154 14.58460020979017"}}, "geometry": {"type": "Point", "coordinates": [-110.65459695784311, 0.8975043750031062]}}, {"type": "Feature", "properties": {"norad_id": 30170, "name": "FENGYUN 1C DEB", "group": "fengyun-1c-debris", "lat": 6.887488598243243, "lon": -14.758059266577012, "alt_km": 929.6991112031919, "timestamp": "2025-12-25T16:53:14.937881+00:00", "meta": {"OBJECT_NAME": "FENGYUN 1C DEB", "OBJECT_ID": "1999-025UB", "EPOCH": "2025-12-24T17:41:37.231872", "MEAN_MOTION": 14.00320749, "ECCENTRICITY": 0.00774163, "INCLINATION": 98.8497, "RA_OF_ASC_NODE": 345.3849, "ARG_OF_PERICENTER": 240.8838, "MEAN_ANOMALY": 296.3748, "EPHEMERIS_TYPE": 0, "CLASSIFICATION_TYPE": "U", "NORAD_CAT_ID": 30170, "ELEMENT_SET_NO": 999, "REV_AT_EPOCH": 96583, "BSTAR": 0.00028409724, "MEAN_MOTION_DOT": 3.88e-06, "MEAN_MOTION_DDOT": 0}, "tle": {"line1": "1 30170U 99025UB  25358.73723648  .00000388  00000+0  28410-3 0  9995", "line2": "2 30170  98.8497 345.3849 0077416 240.8838 296.3748 14.00320749965832"}}, "geometry": {"type": "Point", "coordinates": [-14.758059266577012, 6.887488598243243]}}, {"type": "Feature", "properties": {"norad_id": 30171, "name": "FENGYUN 1C DEB", "group": "fengyun-1c-debris", "lat": 65.11408221746731, "lon": -162.26998359179115, "alt_km": 1027.3946628713593, "timestamp": "2025-12-25T16:53:14.937891+00:00", "meta": {"OBJECT_NAME": "FENGYUN 1C DEB", "OBJECT_ID": "1999-025UC", "EPOCH": "2025-12-24T13:03:14.473728", "MEAN_MOTION": 13.96869648, "ECCENTRICITY": 0.01842649, "INCLINATION": 98.3976, "RA_OF_ASC_NODE": 215.2382, "ARG_OF_PERICENTER": 234.2216, "MEAN_ANOMALY": 124.1698, "EPHEMERIS_TYPE": 0, "CLASSIFICATION_TYPE": "U", "NORAD_CAT_ID": 30171, "ELEMENT_SET_NO": 999, "REV_AT_EPOCH": 96435, "BSTAR": 0.00032688398, "MEAN_MOTION_DOT": 4.85e-06, "MEAN_MOTION_DDOT": 0}, "tle": {"line1": "1 30171U 99025UC  25358.54391752  .00000485  00000+0  32688-3 0  9992", "line2": "2 30171  98.3976 215.2382 0184264 234.2216 124.1698 13.96869648964352"}}, "geometry": {"type": "Point", "coordinates": [-162.26998359179115, 65.11408221746731]}}, {"type": "Feature", "properties": {"norad_id": 30172, "name": "FENGYUN 1C DEB", "group": "fengyun-1c-debris", "lat": 79.73559361187296, "lon": -84.79992795353567, "alt_km": 834.2165675883061, "timestamp": "2025-12-25T16:53:14.937901+00:00", "meta": {"OBJECT_NAME": "FENGYUN 1C DEB", "OBJECT_ID": "1999-025UD", "EPOCH": "2025-12-24T10:35:44.710080", "MEAN_MOTION": 14.12517715, "ECCENTRICITY": 0.00688644, "INCLINATION": 99.2363, "RA_OF_ASC_NODE": 337.8678, "ARG_OF_PERICENTER": 168.8959, "MEAN_ANOMALY": 342.7835, "EPHEMERIS_TYPE": 0, "CLASSIFICATION_TYPE": "U", "NORAD_CAT_ID": 30172, "ELEMENT_SET_NO": 999, "REV_AT_EPOCH": 96682, "BSTAR": 0.0011858128, "MEAN_MOTION_DOT": 2.195e-05, "MEAN_MOTION_DDOT": 0}, "tle": {"line1": "1 30172U 99025UD  25358.44148970  .00002195  00000+0  11858-2 0  9999", "line2": "2 30172  99.2363 337.8678 0068864 168.8959 342.7835 14.12517715966824"}}, "geometry": {"type": "Point", "coordinates": [-84.79992795353567, 79.73559361187296]}}]}